ONEWEB-0456             
1 51646U 22012AA  25326.79627957 -.00000604  00000+0 -17656-2 0  9997
2 51646  87.8818  77.3714 0001866 102.0065 258.1271 13.10369422182310
ONEWEB-0457             
1 51647U 22012AB  25326.84941455  .00000553  00000+0  15472-2 0  9991
2 51647  87.8805  77.4102 0001231 103.6384 256.4880 13.10370180182327
ONEWEB-0458             
1 51648U 22012AC  25326.87098087 -.00000499  00000+0 -14656-2 0  9993
2 51648  87.8809  77.3776 0001666 111.1542 248.9763 13.10370742182285
ONEWEB-0461             
1 51649U 22012AD  25327.13832037  .00000095  00000+0  21216-3 0  9996
2 51649  87.9138  46.8170 0001702 100.0569 260.0755 13.17648070186759
ONEWEB-0463             
1 51650U 22012AE  25326.74006688  .00000072  00000+0  15340-3 0  9995
2 51650  87.9112  46.9432 0001796 104.7366 255.3965 13.17646568186484
ONEWEB-0464             
1 51651U 22012AF  25326.86765921 -.00000518  00000+0 -15195-2 0  9995
2 51651  87.8805  77.4162 0001988 103.2574 256.8775 13.10369357182303
ONEWEB-0468             
1 51652U 22012AG  25326.87429270 -.00000703  00000+0 -20513-2 0  9997
2 51652  87.8807  77.4078 0001912 108.2293 251.9043 13.10370129182282
ONEWEB-0473             
1 51653U 22012AH  25326.85937030  .00000024  00000+0  33419-4 0  9999
2 51653  87.8804  77.4139 0001712 108.3106 251.8207 13.10368840182288
ONEWEB-0474             
1 51654U 22012AJ  25326.85107950  .00000443  00000+0  12328-2 0  9999
2 51654  87.8812  77.3809 0001933 106.2578 253.8762 13.10370275182278
ONEWEB-0475             
1 51655U 22012AK  25327.13156628  .00000039  00000+0  67973-4 0  9997
2 51655  87.9120  46.8531 0002420 117.8616 242.2760 13.17653809186557
ONEWEB-0490             
1 54113U 22138A   25327.06452596 -.00000066  00000+0 -19744-3 0  9997
2 54113  87.9216 345.9693 0002071  91.2555 268.8815 13.19724901149644
ONEWEB-0492             
1 54114U 22138B   25327.08979822  .00000084  00000+0  17792-3 0  9995
2 54114  87.9204 345.9814 0002037  89.0740 271.0627 13.19723774149655
ONEWEB-0495             
1 54115U 22138C   25327.06769586  .00000088  00000+0  18652-3 0  9998
2 54115  87.9199 345.9903 0002577  96.1066 264.0360 13.19727165149639
ONEWEB-0497             
1 54116U 22138D   25327.08032571  .00000124  00000+0  27666-3 0  9994
2 54116  87.9207 345.9728 0001956  92.8384 267.2973 13.19727528149628
ONEWEB-0499             
1 54117U 22138E   25327.06374821  .00000104  00000+0  22651-3 0  9997
2 54117  87.9206 345.9894 0001950  98.0470 262.0884 13.19727509149634
ONEWEB-0500             
1 54118U 22138F   25327.06610784  .00000114  00000+0  25117-3 0  9990
2 54118  87.9204 345.9762 0001816  88.8834 271.2506 13.19727838149648
ONEWEB-0501             
1 54119U 22138G   25327.09611583 -.00000029  00000+0 -10536-3 0  9998
2 54119  87.9218 345.9668 0002248  95.1359 265.0031 13.19727950149629
ONEWEB-0502             
1 54120U 22138H   25327.08189963 -.00000066  00000+0 -19780-3 0  9992
2 54120  87.9211 345.9519 0002104  95.1922 264.9450 13.19724768149645
ONEWEB-0503             
1 54121U 22138J   25327.07084545  .00000135  00000+0  30378-3 0  9993
2 54121  87.9210 345.9582 0001749 102.0820 258.0509 13.19728163149635
ONEWEB-0504             
1 54122U 22138K   25327.05821560  .00000038  00000+0  61648-4 0  9995
2 54122  87.9209 345.9775 0002027  99.4242 260.7119 13.19727669149643
ONEWEB-0505             
1 54123U 22138L   25327.13086847  .00000209  00000+0  48887-3 0  9995
2 54123  87.9218 345.9516 0002684 102.3854 257.7579 13.19725537149636
ONEWEB-0506             
1 54124U 22138M   25327.10559214 -.00000036  00000+0 -12237-3 0  9996
2 54124  87.9215 345.9537 0001983  95.0460 265.0899 13.19727751149625
ONEWEB-0507             
1 54125U 22138N   25327.12612424 -.00000042  00000+0 -13762-3 0  9993
2 54125  87.9197 345.9885 0002035  91.0554 269.0812 13.19727385149677
ONEWEB-0508             
1 54126U 22138P   25327.12297170  .00000021  00000+0  20227-4 0  9991
2 54126  87.9207 345.9809 0002245  94.3568 265.7821 13.19723566149658
ONEWEB-0509             
1 54127U 22138Q   25327.09769847 -.00000023  00000+0 -90717-4 0  9998
2 54127  87.9217 345.9550 0001971  94.0634 266.0724 13.19727729149627
ONEWEB-0510             
1 54128U 22138R   25326.92150620  .00000045  00000+0  77874-4 0  9994
2 54128  87.9179 315.5730 0001379  79.9598 280.1691 13.20772901152056
ONEWEB-0511             
1 54129U 22138S   25327.09453481 -.00000178  00000+0 -47724-3 0  9994
2 54129  87.9213 345.9591 0001776 102.8729 257.2602 13.19727096149653
ONEWEB-0512             
1 54130U 22138T   25327.08663752  .00000090  00000+0  19256-3 0  9999
2 54130  87.9200 345.9880 0002192  99.6705 260.4675 13.19723445149629
ONEWEB-0513             
1 54131U 22138U   25327.10095603 -.00000075  00000+0 -21872-3 0  9999
2 54131  87.9218 345.9463 0002144 107.7603 252.3764 13.20320497149521
ONEWEB-0514             
1 54132U 22138V   25327.10244064 -.00000115  00000+0 -31929-3 0  9996
2 54132  87.9207 345.9680 0001707  94.3129 265.8199 13.19726787149643
ONEWEB-0515             
1 54133U 22138W   25326.90886450 -.00000055  00000+0 -16644-3 0  9995
2 54133  87.9186 315.5599 0001769  58.3748 301.7558 13.20773826152075
ONEWEB-0516             
1 54134U 22138X   25327.07716137 -.00000225  00000+0 -59381-3 0  9993
2 54134  87.9196 345.9951 0001953  91.6902 268.4455 13.19725383149640
ONEWEB-0517             
1 54135U 22138Y   25327.05663735  .00000089  00000+0  18874-3 0  9995
2 54135  87.9215 345.9755 0001695 100.0653 260.0671 13.19727231149648
ONEWEB-0518             
1 54136U 22138Z   25327.07558448  .00000138  00000+0  31251-3 0  9991
2 54136  87.9194 345.9975 0002006  93.2375 266.8987 13.19727998149644
ONEWEB-0519             
1 54137U 22138AA  25327.10086302 -.00000163  00000+0 -43986-3 0  9999
2 54137  87.9214 345.9580 0001742 100.5768 259.5561 13.19726464149659
ONEWEB-0520             
1 54138U 22138AB  25327.05978258  .00000080  00000+0  16840-3 0  9999
2 54138  87.9216 345.9701 0002165  92.3116 267.8264 13.19728354149632
ONEWEB-0521             
1 54139U 22138AC  25327.09295397 -.00000025  00000+0 -95977-4 0  9990
2 54139  87.9208 345.9493 0001731  96.7307 263.4023 13.19724750149585
ONEWEB-0522             
1 54140U 22138AD  25327.07243657  .00000103  00000+0  22590-3 0  9997
2 54140  87.9215 345.9543 0002024  95.9771 264.1593 13.19725367149623
ONEWEB-0523             
1 54141U 22138AE  25326.97201194  .00000006  00000+0 -16336-4 0  9991
2 54141  87.9180 315.5665 0001157  66.7274 293.3981 13.20773129152083
ONEWEB-0524             
1 54142U 22138AF  25327.03671372  .00001080  00000+0  26228-2 0  9990
2 54142  87.9178 315.5565 0002078  62.6172 297.5173 13.20781055152092
ONEWEB-0525             
1 54143U 22138AG  25327.09137772 -.00000343  00000+0 -88894-3 0  9999
2 54143  87.9207 345.9714 0002175  95.8640 264.2741 13.19725250149647
ONEWEB-0526             
1 54144U 22138AH  25327.12455190  .00000052  00000+0  98262-4 0  9997
2 54144  87.9213 345.9522 0001957  94.5841 265.5516 13.19727528149620
ONEWEB-0529             
1 54145U 22138AJ  25327.12770854  .00000059  00000+0  11619-3 0  9992
2 54145  87.9198 345.9820 0002083  92.2446 267.8925 13.19727786149648
ONEWEB-0531             
1 54146U 22138AK  25327.02249328 -.00000507  00000+0 -12789-2 0  9997
2 54146  87.9185 315.5510 0001771  54.4151 305.7147 13.20772091152092
ONEWEB-0535             
1 54147U 22138AL  25327.08504347  .00000123  00000+0  27549-3 0  9992
2 54147  87.9211 345.9556 0001454  93.9613 266.1686 13.19720180149655
ONEWEB-0536             
1 54148U 22138AM  25326.93414056  .00000018  00000+0  11381-4 0  9994
2 54148  87.9176 315.6133 0001563  53.7975 306.3303 13.20772244152070
ONEWEB-0527             
1 54642U 22166A   25326.89801098  .00000031  00000+0  44023-4 0  9999
2 54642  87.9197 285.1474 0001953  80.9170 279.2185 13.21825761144287
ONEWEB-0528             
1 54643U 22166B   25326.90461152  .00000108  00000+0  23052-3 0  9998
2 54643  87.9197 285.1498 0001995  80.8514 279.2845 13.21826057144294
ONEWEB-0539             
1 54644U 22166C   25326.86674977 -.00000090  00000+0 -24981-3 0  9999
2 54644  87.9193 285.1235 0001972  89.3192 270.8168 13.21824396144289
ONEWEB-0540             
1 54645U 22166D   25326.87347593 -.00000538  00000+0 -13349-2 0  9994
2 54645  87.9192 285.1601 0001928  87.8605 272.2749 13.21821795144279
ONEWEB-0542             
1 54646U 22166E   25326.95231575 -.00000108  00000+0 -29381-3 0  9993
2 54646  87.9197 285.1028 0001738  94.1662 265.9671 13.21828278144299
ONEWEB-0545             
1 54647U 22166F   25326.91776127  .00000104  00000+0  22012-3 0  9995
2 54647  87.9193 285.1304 0001910  94.6908 265.4444 13.21827220144258
ONEWEB-0580             
1 54648U 22166G   25326.89142410 -.00000014  00000+0 -64562-4 0  9994
2 54648  87.9200 285.1340 0001651  90.3642 269.7681 13.21823415144294
ONEWEB-0582             
1 54649U 22166H   25326.93420558 -.00000504  00000+0 -12514-2 0  9994
2 54649  87.9196 285.1184 0001607  95.8033 264.3284 13.21824857144279
ONEWEB-0583             
1 54650U 22166J   25326.94572100  .00000018  00000+0  11566-4 0  9994
2 54650  87.9193 285.1415 0001934  86.5887 273.5468 13.21829552144286
ONEWEB-0584             
1 54651U 22166K   25326.96548237 -.00000209  00000+0 -53719-3 0  9990
2 54651  87.9203 285.1231 0001560  87.2464 272.8848 13.21827485144275
ONEWEB-0585             
1 54652U 22166L   25326.91448255  .00000020  00000+0  17920-4 0  9999
2 54652  87.9196 285.1186 0001975  77.6901 282.4454 13.21825886144278
ONEWEB-0586             
1 54653U 22166M   25326.92763381 -.00000032  00000+0 -10891-3 0  9995
2 54653  87.9193 285.1415 0001834  86.1775 273.9568 13.21823207144275
ONEWEB-0587             
1 54654U 22166N   25326.93750547 -.00000036  00000+0 -11773-3 0  9991
2 54654  87.9203 285.0934 0002123  74.1007 286.0360 13.21823613144434
